[
  {
    "OBJECT_NAME": "OSCAR 7 (AO-7)",
    "OBJECT_ID": "1974-089B",
    "EPOCH": "2025-06-07T14:00:21.929760",
    "MEAN_MOTION": 12.53689516,
    "ECCENTRICITY": 0.0012564,
    "INCLINATION": 101.9926,
    "RA_OF_ASC_NODE": 162.8264,
    "ARG_OF_PERICENTER": 124.9549,
    "MEAN_ANOMALY": 352.9044,
    "EPHEMERIS_TYPE": 0,
    "CLASSIFICATION_TYPE": "U",
    "NORAD_CAT_ID": 7530,
    "ELEMENT_SET_NO": 999,
    "REV_AT_EPOCH": 31357,
    "BSTAR": 0.00011544,
    "MEAN_MOTION_DOT": -2.8e-07,
    "MEAN_MOTION_DDOT": 0
  },
  {
    "OBJECT_NAME": "PHASE 3B (AO-10)",
    "OBJECT_ID": "1983-058B",
    "EPOCH": "2025-06-07T10:23:52.791360",
    "MEAN_MOTION": 2.05869853,
    "ECCENTRICITY": 0.6061506,
    "INCLINATION": 26.7084,
    "RA_OF_ASC_NODE": 282.7849,
    "ARG_OF_PERICENTER": 11.6405,
    "MEAN_ANOMALY": 357.5721,
    "EPHEMERIS_TYPE": 0,
    "CLASSIFICATION_TYPE": "U",
    "NORAD_CAT_ID": 14129,
    "ELEMENT_SET_NO": 999,
    "REV_AT_EPOCH": 28777,
    "BSTAR": 0,
    "MEAN_MOTION_DOT": -1.01e-06,
    "MEAN_MOTION_DDOT": 0
  },
  {
    "OBJECT_NAME": "UOSAT 2 (UO-11)",
    "OBJECT_ID": "1984-021B",
    "EPOCH": "2025-06-07T20:30:12.550752",
    "MEAN_MOTION": 14.89385007,
    "ECCENTRICITY": 0.0007586,
    "INCLINATION": 97.7542,
    "RA_OF_ASC_NODE": 125.2568,
    "ARG_OF_PERICENTER": 354.2494,
    "MEAN_ANOMALY": 5.8635,
    "EPHEMERIS_TYPE": 0,
    "CLASSIFICATION_TYPE": "U",
    "NORAD_CAT_ID": 14781,
    "ELEMENT_SET_NO": 999,
    "REV_AT_EPOCH": 22238,
    "BSTAR": 0.00013709,
    "MEAN_MOTION_DOT": 1.248e-05,
    "MEAN_MOTION_DDOT": 0
  },
  {
    "OBJECT_NAME": "LUSAT (LO-19)",
    "OBJECT_ID": "1990-005G",
    "EPOCH": "2025-06-07T12:03:53.103744",
    "MEAN_MOTION": 14.33954181,
    "ECCENTRICITY": 0.0010843,
    "INCLINATION": 98.8978,
    "RA_OF_ASC_NODE": 164.6503,
    "ARG_OF_PERICENTER": 220.4923,
    "MEAN_ANOMALY": 139.5455,
    "EPHEMERIS_TYPE": 0,
    "CLASSIFICATION_TYPE": "U",
    "NORAD_CAT_ID": 20442,
    "ELEMENT_SET_NO": 999,
    "REV_AT_EPOCH": 84869,
    "BSTAR": 6.1378e-05,
    "MEAN_MOTION_DOT": 1.24e-06,
    "MEAN_MOTION_DDOT": 0
  },
  {
    "OBJECT_NAME": "EYESAT A (AO-27)",
    "OBJECT_ID": "1993-061C",
    "EPOCH": "2025-06-07T02:52:35.847840",
    "MEAN_MOTION": 14.30798788,
    "ECCENTRICITY": 0.0009458,
    "INCLINATION": 98.7366,
    "RA_OF_ASC_NODE": 219.6632,
    "ARG_OF_PERICENTER": 117.2629,
    "MEAN_ANOMALY": 242.9518,
    "EPHEMERIS_TYPE": 0,
    "CLASSIFICATION_TYPE": "U",
    "NORAD_CAT_ID": 22825,
    "ELEMENT_SET_NO": 999,
    "REV_AT_EPOCH": 65336,
    "BSTAR": 5.3876e-05,
    "MEAN_MOTION_DOT": 9.6e-07,
    "MEAN_MOTION_DDOT": 0
  },
  {
    "OBJECT_NAME": "ITAMSAT (IO-26)",
    "OBJECT_ID": "1993-061D",
    "EPOCH": "2025-06-07T03:20:43.062720",
    "MEAN_MOTION": 14.31211849,
    "ECCENTRICITY": 0.001008,
    "INCLINATION": 98.7315,
    "RA_OF_ASC_NODE": 219.566,
    "ARG_OF_PERICENTER": 103.4507,
    "MEAN_ANOMALY": 256.7799,
    "EPHEMERIS_TYPE": 0,
    "CLASSIFICATION_TYPE": "U",
    "NORAD_CAT_ID": 22826,
    "ELEMENT_SET_NO": 999,
    "REV_AT_EPOCH": 65366,
    "BSTAR": 5.892e-05,
    "MEAN_MOTION_DOT": 1.11e-06,
    "MEAN_MOTION_DDOT": 0
  },
  {
    "OBJECT_NAME": "RADIO ROSTO (RS-15)",
    "OBJECT_ID": "1994-085A",
    "EPOCH": "2025-06-07T11:49:43.970592",
    "MEAN_MOTION": 11.27581321,
    "ECCENTRICITY": 0.0145537,
    "INCLINATION": 64.8132,
    "RA_OF_ASC_NODE": 189.1815,
    "ARG_OF_PERICENTER": 74.753,
    "MEAN_ANOMALY": 286.9431,
    "EPHEMERIS_TYPE": 0,
    "CLASSIFICATION_TYPE": "U",
    "NORAD_CAT_ID": 23439,
    "ELEMENT_SET_NO": 999,
    "REV_AT_EPOCH": 25365,
    "BSTAR": 0.00065753,
    "MEAN_MOTION_DOT": -1.9e-07,
    "MEAN_MOTION_DDOT": 0
  },
  {
    "OBJECT_NAME": "JAS-2 (FO-29)",
    "OBJECT_ID": "1996-046B",
    "EPOCH": "2025-06-07T16:22:07.940640",
    "MEAN_MOTION": 13.53249082,
    "ECCENTRICITY": 0.0349762,
    "INCLINATION": 98.5765,
    "RA_OF_ASC_NODE": 52.8231,
    "ARG_OF_PERICENTER": 347.7189,
    "MEAN_ANOMALY": 11.5586,
    "EPHEMERIS_TYPE": 0,
    "CLASSIFICATION_TYPE": "U",
    "NORAD_CAT_ID": 24278,
    "ELEMENT_SET_NO": 999,
    "REV_AT_EPOCH": 42276,
    "BSTAR": 1.7055e-05,
    "MEAN_MOTION_DOT": -2e-07,
    "MEAN_MOTION_DDOT": 0
  },
  {
    "OBJECT_NAME": "TECHSAT 1B (GO-32)",
    "OBJECT_ID": "1998-043D",
    "EPOCH": "2025-06-07T12:20:23.146656",
    "MEAN_MOTION": 14.24314866,
    "ECCENTRICITY": 0.0001062,
    "INCLINATION": 98.97,
    "RA_OF_ASC_NODE": 137.5901,
    "ARG_OF_PERICENTER": 161.6973,
    "MEAN_ANOMALY": 198.4244,
    "EPHEMERIS_TYPE": 0,
    "CLASSIFICATION_TYPE": "U",
    "NORAD_CAT_ID": 25397,
    "ELEMENT_SET_NO": 999,
    "REV_AT_EPOCH": 39799,
    "BSTAR": 5.2194e-05,
    "MEAN_MOTION_DOT": 7.4e-07,
    "MEAN_MOTION_DDOT": 0
  },
  {
    "OBJECT_NAME": "ISS (ZARYA)",
    "OBJECT_ID": "1998-067A",
    "EPOCH": "2025-06-07T20:25:28.669728",
    "MEAN_MOTION": 15.50057765,
    "ECCENTRICITY": 0.0001636,
    "INCLINATION": 51.6367,
    "RA_OF_ASC_NODE": 353.3435,
    "ARG_OF_PERICENTER": 208.8299,
    "MEAN_ANOMALY": 151.26,
    "EPHEMERIS_TYPE": 0,
    "CLASSIFICATION_TYPE": "U",
    "NORAD_CAT_ID": 25544,
    "ELEMENT_SET_NO": 999,
    "REV_AT_EPOCH": 51371,
    "BSTAR": 0.00014194,
    "MEAN_MOTION_DOT": 7.67e-05,
    "MEAN_MOTION_DDOT": 0
  },
  {
    "OBJECT_NAME": "PCSAT (NO-44)",
    "OBJECT_ID": "2001-043C",
    "EPOCH": "2025-06-07T03:08:36.299616",
    "MEAN_MOTION": 14.31733575,
    "ECCENTRICITY": 0.0006046,
    "INCLINATION": 67.0492,
    "RA_OF_ASC_NODE": 134.1716,
    "ARG_OF_PERICENTER": 275.6424,
    "MEAN_ANOMALY": 84.3988,
    "EPHEMERIS_TYPE": 0,
    "CLASSIFICATION_TYPE": "U",
    "NORAD_CAT_ID": 26931,
    "ELEMENT_SET_NO": 999,
    "REV_AT_EPOCH": 23675,
    "BSTAR": 9.3212e-05,
    "MEAN_MOTION_DOT": 1.66e-06,
    "MEAN_MOTION_DDOT": 0
  },
  {
    "OBJECT_NAME": "SAUDISAT 1C (SO-50)",
    "OBJECT_ID": "2002-058C",
    "EPOCH": "2025-06-07T20:45:58.887360",
    "MEAN_MOTION": 14.81620714,
    "ECCENTRICITY": 0.0056203,
    "INCLINATION": 64.5518,
    "RA_OF_ASC_NODE": 205.8284,
    "ARG_OF_PERICENTER": 334.418,
    "MEAN_ANOMALY": 25.4146,
    "EPHEMERIS_TYPE": 0,
    "CLASSIFICATION_TYPE": "U",
    "NORAD_CAT_ID": 27607,
    "ELEMENT_SET_NO": 999,
    "REV_AT_EPOCH": 20918,
    "BSTAR": 0.0001196,
    "MEAN_MOTION_DOT": 8.17e-06,
    "MEAN_MOTION_DDOT": 0
  },
  {
    "OBJECT_NAME": "CUTE-1 (CO-55)",
    "OBJECT_ID": "2003-031E",
    "EPOCH": "2025-06-07T00:14:00.203712",
    "MEAN_MOTION": 14.23995041,
    "ECCENTRICITY": 0.0009395,
    "INCLINATION": 98.6753,
    "RA_OF_ASC_NODE": 166.3165,
    "ARG_OF_PERICENTER": 187.5601,
    "MEAN_ANOMALY": 172.5437,
    "EPHEMERIS_TYPE": 0,
    "CLASSIFICATION_TYPE": "U",
    "NORAD_CAT_ID": 27844,
    "ELEMENT_SET_NO": 999,
    "REV_AT_EPOCH": 13827,
    "BSTAR": 0.00015705,
    "MEAN_MOTION_DOT": 3.17e-06,
    "MEAN_MOTION_DDOT": 0
  },
  {
    "OBJECT_NAME": "CUBESAT XI-IV (CO-57)",
    "OBJECT_ID": "2003-031J",
    "EPOCH": "2025-06-07T10:46:34.591872",
    "MEAN_MOTION": 14.23330128,
    "ECCENTRICITY": 0.0008926,
    "INCLINATION": 98.6781,
    "RA_OF_ASC_NODE": 166.7575,
    "ARG_OF_PERICENTER": 204.2363,
    "MEAN_ANOMALY": 155.8396,
    "EPHEMERIS_TYPE": 0,
    "CLASSIFICATION_TYPE": "U",
    "NORAD_CAT_ID": 27848,
    "ELEMENT_SET_NO": 999,
    "REV_AT_EPOCH": 13806,
    "BSTAR": 0.00013523,
    "MEAN_MOTION_DOT": 2.63e-06,
    "MEAN_MOTION_DDOT": 0
  }
]