OSCAR 7 (AO-7)          
1 07530U 74089B   25158.58358715 -.00000028  00000+0  11544-3 0  9994
2 07530 101.9926 162.8264 0012564 124.9549 352.9044 12.53689516313578
PHASE 3B (AO-10)        
1 14129U 83058B   25158.43324990 -.00000101  00000+0  00000+0 0  9997
2 14129  26.7084 282.7849 6061506  11.6405 357.5721  2.05869853287774
UOSAT 2 (UO-11)         
1 14781U 84021B   25158.85431193  .00001248  00000+0  13709-3 0  9998
2 14781  97.7542 125.2568 0007586 354.2494   5.8635 14.89385007222382
LUSAT (LO-19)           
1 20442U 90005G   25158.50269796  .00000124  00000+0  61378-4 0  9996
2 20442  98.8978 164.6503 0010843 220.4923 139.5455 14.33954181848692
EYESAT A (AO-27)        
1 22825U 93061C   25158.11985935  .00000096  00000+0  53876-4 0  9997
2 22825  98.7366 219.6632 0009458 117.2629 242.9518 14.30798788653362
ITAMSAT (IO-26)         
1 22826U 93061D   25158.13938730  .00000111  00000+0  58920-4 0  9994
2 22826  98.7315 219.5660 0010080 103.4507 256.7799 14.31211849653668
RADIO ROSTO (RS-15)     
1 23439U 94085A   25158.49287003 -.00000019  00000+0  65753-3 0  9990
2 23439  64.8132 189.1815 0145537  74.7530 286.9431 11.27581321253656
JAS-2 (FO-29)           
1 24278U 96046B   25158.68203635 -.00000020  00000+0  17055-4 0  9996
2 24278  98.5765  52.8231 0349762 347.7189  11.5586 13.53249082422760
TECHSAT 1B (GO-32)      
1 25397U 98043D   25158.51415679  .00000074  00000+0  52194-4 0  9994
2 25397  98.9700 137.5901 0001062 161.6973 198.4244 14.24314866397997
ISS (ZARYA)             
1 25544U 98067A   25158.85102627  .00007670  00000+0  14194-3 0  9993
2 25544  51.6367 353.3435 0001636 208.8299 151.2600 15.50057765513713
PCSAT (NO-44)           
1 26931U 01043C   25158.13097569  .00000166  00000+0  93212-4 0  9993
2 26931  67.0492 134.1716 0006046 275.6424  84.3988 14.31733575236752
SAUDISAT 1C (SO-50)     
1 27607U 02058C   25158.86526490  .00000817  00000+0  11960-3 0  9993
2 27607  64.5518 205.8284 0056203 334.4180  25.4146 14.81620714209187
CUTE-1 (CO-55)          
1 27844U 03031E   25158.00972458  .00000317  00000+0  15705-3 0  9999
2 27844  98.6753 166.3165 0009395 187.5601 172.5437 14.23995041138275
CUBESAT XI-IV (CO-57)   
1 27848U 03031J   25158.44901148  .00000263  00000+0  13523-3 0  9995
2 27848  98.6781 166.7575 0008926 204.2363 155.8396 14.23330128138064
